STARLINK-35421          
1 66062C 25235E   26158.53451389  .00049175  00000+0  16576-2 0  1586
2 66062  53.1578 188.1005 0001267  85.1923 324.9132 15.30163009    11
STARLINK-35562          
1 66063C 25235F   26158.53729167  .00025248  00000+0  85084-3 0  1585
2 66063  53.1593 188.3126 0001112  71.6974 237.3742 15.30183140    12
STARLINK-35542          
1 66064C 25235G   26158.53312500  .00055815  00000+0  18828-2 0  1589
2 66064  53.1582 188.1313 0001222  88.2456 302.5751 15.30135281    16
STARLINK-35375          
1 66065C 25235H   26158.51715278  .00026259  00000+0  88485-3 0  1584
2 66065  53.1595 188.3866 0001209  75.7102 133.9761 15.30184970    16
STARLINK-35179          
1 66066C 25235J   26158.51576389  .00044649  00000+0  15051-2 0  1584
2 66066  53.1586 188.2552 0001371  72.2337 199.6423 15.30163889    10
STARLINK-35401          
1 66067C 25235K   26158.50187500  .01728100  00000+0  57653-1 0  1582
2 66067  53.1577 188.1816 0001720  66.9375 198.3276 15.29660273    12
STARLINK-35422          
1 66068C 25235L   26158.49701389  .00010769  00000+0  36308-3 0  1588
2 66068  53.1572 188.0549 0001158  84.3526 229.6107 15.30175309    11
STARLINK-35279          
1 66069C 25235M   26158.49493056  .00043055  00000+0  14516-2 0  1588
2 66069  53.1575 187.9939 0001105  79.6449 257.7110 15.30160673    13
STARLINK-35295          
1 66070C 25235N   26158.48381944  .00040369  00000+0  13608-2 0  1587
2 66070  53.1591 188.4895 0001288  79.8393 329.4277 15.30165452    13
STARLINK-35323          
1 66071C 25235P   26158.50604167  .00046432  00000+0  15652-2 0  1584
2 66071  53.1588 187.8028 0001261  77.5244  30.8707 15.30163475    16
STARLINK-35299          
1 66072C 25235Q   26158.55118056  .00045639  00000+0  15383-2 0  1586
2 66072  53.1577 188.0108 0001241  81.8328  65.9559 15.30166778    19
STARLINK-35274          
1 66073C 25235R   26158.50743056  .00041276  00000+0  13913-2 0  1586
2 66073  53.1593 188.3956 0001180  78.9661  94.6186 15.30168577    15
STARLINK-35321          
1 66074C 25235S   26158.54840278  .00049028  00000+0  16547-2 0  1584
2 66074  53.1586 188.1358 0001238  83.9338 350.4310 15.30122540    15
STARLINK-35131          
1 66075C 25235T   26158.51854167  .00032085  00000+0  10816-2 0  1582
2 66075  53.1570 188.0678 0000875 104.6597 269.7803 15.30167824    10
STARLINK-34801          
1 66076C 25235U   26158.49284722  .00043013  00000+0  14499-2 0  1588
2 66076  53.1584 188.3252 0001286  79.7013  83.3090 15.30164617    14
STARLINK-35129          
1 66077C 25235V   26158.47687500 -.00006908  00000+0 -23281-3 0  1582
2 66077  53.1576 188.3303 0001260  88.7010  21.1508 15.30197901    18
STARLINK-35116          
1 66078C 25235W   26158.53868056  .00054984  00000+0  18531-2 0  1583
2 66078  53.1573 187.8240 0001212  80.4672 120.5722 15.30164915    11
STARLINK-35402          
1 66079C 25235X   26158.48659722  .00033288  00000+0  11222-2 0  1580
2 66079  53.1578 187.9952 0001268  81.3790 227.5037 15.30166923    18
STARLINK-35325          
1 66080C 25235Y   26158.52131944  .00029755  00000+0  10029-2 0  1586
2 66080  53.1569 187.9744 0001065  86.5755 343.8748 15.30175974    19
STARLINK-35403          
1 66081C 25235Z   26158.52965278  .00054562  00000+0  17549-2 0  1580
2 66081  53.1566 187.1946 0001281  83.7996  46.8301 15.31669277    19
STARLINK-35011          
1 66082C 25235AA  26158.52965278  .00050730  00000+0  16329-2 0  1589
2 66082  53.1576 187.3477 0001263  81.5183 331.9333 15.31645966    18
STARLINK-35291          
1 66083C 25235AB  26158.51854167  .00015767  00000+0  53164-3 0  1583
2 66083  53.1591 188.3604 0001338  81.1783 142.0661 15.30169498    19
STARLINK-35379          
1 66084C 25235AC  26158.47270833  .00027629  00000+0  93133-3 0  1581
2 66084  53.1586 188.4354 0001287  82.4767 317.8946 15.30173587    18
STARLINK-35370          
1 66085C 25235AD  26158.53729167  .00049061  00000+0  16537-2 0  1584
2 66085  53.1592 188.2046 0001155  67.2250 294.2153 15.30164887    15
STARLINK-35596          
1 66086C 25236A   26158.48034722  .00041778  00000+0  14092-2 0  1587
2 66086  53.1574  47.1208 0001190  96.4784  43.3261 15.30143649    10
STARLINK-35563          
1 66087C 25236B   26158.50743056  .00064272  00000+0  19522-2 0  1585
2 66087  53.1600  46.5931 0001171  92.6654  38.9788 15.33486243    17
STARLINK-35461          
1 66088C 25236C   26158.53729167  .00071427  00000+0  24094-2 0  1586
2 66088  53.1602  46.3254 0001480  95.0749 266.1449 15.30128473    15
STARLINK-35571          
1 66089C 25236D   26158.48173611  .00047134  00000+0  15901-2 0  1583
2 66089  53.1606  46.6877 0000732  85.9037 276.7475 15.30136925    18
STARLINK-35570          
1 66090C 25236E   26158.47270833  .00160060  00000+0  53843-2 0  1589
2 66090  53.1594  46.5563 0001581  97.5683 302.5999 15.30172960    14
STARLINK-35532          
1 66091C 25236F   26158.49076389  .00050442  00000+0  17016-2 0  1586
2 66091  53.1581  46.4031 0001312  87.1807  87.4116 15.30137373    14
STARLINK-35527          
1 66092C 25236G   26158.54423611  .00075157  00000+0  22227-2 0  1587
2 66092  53.1575  46.0101 0001172  93.9508  93.0118 15.34322157    14
STARLINK-35500          
1 66093C 25236H   26158.50118056  .00054311  00000+0  18327-2 0  1583
2 66093  53.1604  46.6307 0001305  80.6016  11.8026 15.30125712    17
STARLINK-35528          
1 66094C 25236J   26158.50604167  .00061082  00000+0  20588-2 0  1582
2 66094  53.1606  46.5391 0001038  91.1141  62.9300 15.30158918    17
STARLINK-35559          
1 66095C 25236K   26158.52826389  .00069179  00000+0  23307-2 0  1584
2 66095  53.1604  46.4011 0001142 100.4448 193.5764 15.30169624    15
STARLINK-34386          
1 66096C 25236L   26158.53312500  .00071148  00000+0  23998-2 0  1586
2 66096  53.1596  46.3089 0000980  95.5718 260.1504 15.30130699    16
STARLINK-35613          
1 66097C 25236M   26158.47479167  .00042563  00000+0  14361-2 0  1586
2 66097  53.1606  46.6717 0001321  69.7535 277.9159 15.30134568    11
STARLINK-34206          
1 66098C 25236N   26158.51993056 -.00011378  00000+0 -33639-3 0  1582
2 66098  53.1577  46.1905 0001275  94.6517 283.1309 15.34374922    18
STARLINK-34460          
1 66099C 25236P   26158.47965278  .00045661  00000+0  15406-2 0  1584
2 66099  53.1588  46.4884 0001418 112.0065 343.9095 15.30133322    12
STARLINK-35609          
1 66100C 25236Q   26158.48798611  .00053509  00000+0  15832-2 0  1586
2 66100  53.1593  46.5452 0001603  99.9712 356.5562 15.34318783    10
STARLINK-35595          
1 66101C 25236R   26158.51506944  .00068260  00000+0  20178-2 0  1586
2 66101  53.1600  46.6213 0000936  53.6148  87.9465 15.34340753    13
STARLINK-35599          
1 66102C 25236S   26158.50326389  .00064775  00000+0  19166-2 0  1581
2 66102  53.1579  46.2443 0001571  95.6857 201.6048 15.34312314    13
STARLINK-35622          
1 66103C 25236T   26158.50187500  .00063909  00000+0  18902-2 0  1587
2 66103  53.1600  46.5218 0001112  95.3010  54.7397 15.34326675    10
STARLINK-35452          
1 66104C 25236U   26158.50187500  .00009857  00000+0  29090-3 0  1581
2 66104  53.1580  46.3184 0001208 104.0850 150.6296 15.34422382    10
STARLINK-35561          
1 66105C 25236V   26158.54284722  .00077324  00000+0  23489-2 0  1589
2 66105  53.1598  46.5488 0000624 116.8302 146.9983 15.33476486    17
STARLINK-35584          
1 66106C 25236W   26158.50534722  .00067740  00000+0  20036-2 0  1580
2 66106  53.1582  46.2086 0001354  95.3597 225.0518 15.34321731    16
STARLINK-35593          
1 66107C 25236X   26158.52687500  .00076456  00000+0  22611-2 0  1581
2 66107  53.1593  46.3109 0000935  83.1384 251.5872 15.34321857    15
STARLINK-35590          
1 66108C 25236Y   26158.53243056  .00068515  00000+0  23107-2 0  1585
2 66108  53.1600  46.5042 0001188  98.4015 154.6080 15.30136955    17
STARLINK-35545          
1 66109C 25236Z   26158.48243056  .00052217  00000+0  15444-2 0  1587
2 66109  53.1605  46.6553 0001265  94.3512 284.9635 15.34330708    13
STARLINK-35427          
1 66110C 25236AA  26158.52131944 -.00112860  00000+0 -37894-2 0  1582
2 66110  53.1576  46.9606 0001494 111.4269 236.6757 15.30370603    11
STARLINK-35574          
1 66111C 25236AB  26158.49562500  .00052732  00000+0  17787-2 0  1583
2 66111  53.1576  47.0566 0001195  95.4987 122.7024 15.30139762    16
STARLINK-35531          
1 66112C 25236AC  26158.48243056  .00046137  00000+0  15555-2 0  1588
2 66112  53.1605  46.7021 0001277  86.1971 268.6827 15.30157622    19
STARLINK-35491          
1 66113C 25236AD  26158.48381944  .00047205  00000+0  15923-2 0  1584
2 66113  53.1574  47.0884 0001252  77.1899  87.5753 15.30141756    15
STARLINK-35496          
1 66114C 25237A   26158.52895833  .00027971  00000+0  82726-3 0  1582
2 66114  53.1614 342.1511 0001621  84.8369  66.6919 15.34344338    11
STARLINK-35428          
1 66115C 25237B   26158.51506944  .00033793  00000+0  11415-2 0  1589
2 66115  53.1591 342.5517 0001454  82.0681 183.5511 15.30102575    15
STARLINK-35573          
1 66116C 25237C   26158.54493056  .00018668  00000+0  62934-3 0  1589
2 66116  53.1614 342.0901 0001461  91.6562 141.3395 15.30174470    11
STARLINK-35572          
1 66117C 25237D   26158.52201389  .00034134  00000+0  11508-2 0  1580
2 66117  53.1594 342.4481 0001275  95.9914 242.7252 15.30164414    12
STARLINK-35468          
1 66118C 25237E   26158.52409722  .00030743  00000+0  10364-2 0  1583
2 66118  53.1592 342.5797 0001140 113.4111 166.9990 15.30167746    15
STARLINK-35547          
1 66119C 25237F   26158.48590278  .00043647  00000+0  14712-2 0  1584
2 66119  53.1611 342.4311 0001352  99.2905 133.4453 15.30165683    17
STARLINK-35553          
1 66120C 25237G   26158.50743056  .00037659  00000+0  11134-2 0  1584
2 66120  53.1610 342.1603 0001367  99.8105 339.2110 15.34350874    11
